NORAD_CAT_ID,OBJECT_NAME,OBJECT_TYPE,EPOCH,MEAN_MOTION,ECCENTRICITY,INCLINATION,RA_OF_ASC_NODE,ARG_OF_PERICENTER,MEAN_ANOMALY,BSTAR,MEAN_MOTION_DOT,MEAN_MOTION_DDOT,TLE_LINE0,TLE_LINE1,TLE_LINE2,SEMIMAJOR_AXIS,PERIOD,APOGEE,PERIGEE,DECAYED
52138.0,STARLINK-3723,PAYLOAD,2022-04-16 12:00:02,15.73182576,0.0001323,53.217,3.9747,138.2421,3.1326,-0.00109,-0.00150772,0.0,0 STARLINK-3723,1 52138U 22029BC  22106.50002315 -.00150772  00000-0 -10900-2 0  9997,2 52138  53.2170   3.9747 0001323 138.2421   3.1326 15.73182576  5701,6727.945,91.534,350.7,348.92,0.0
52138.0,STARLINK-3723,PAYLOAD,2022-04-16 14:00:01,15.73108412,0.0001395999999999,53.2169,3.562,137.8148,115.7291,-0.0002339,-0.00033188,0.0,0 STARLINK-3723,1 52138U 22029BC  22106.58334491 -.00033188  00000-0 -23390-3 0  9997,2 52138  53.2169   3.5620 0001396 137.8148 115.7291 15.73108412  3702,6728.156,91.539,350.961,349.082,0.0
52138.0,STARLINK-3723,PAYLOAD,2022-04-16 20:00:01,15.73053424,0.0001323,53.2173,2.3262,137.821,92.3118,0.00090744,0.00127882,0.0,0 STARLINK-3723,1 52138U 22029BC  22106.83334491  .00127882  00000-0  90744-3 0  9995,2 52138  53.2173   2.3262 0001323 137.8210  92.3118 15.73053424  5764,6728.313,91.542,351.0680000000001,349.288,0.0
52138.0,STARLINK-3723,PAYLOAD,2022-04-16 22:00:01,15.73082508,0.0001276,53.2171,1.9144,133.8128,208.575,0.00074897,0.00105286,0.0,0 STARLINK-3723,1 52138U 22029BC  22106.91668981  .00105286  00000-0  74897-3 0  9993,2 52138  53.2171   1.9144 0001276 133.8128 208.5750 15.73082508  3695,6728.23,91.54,350.954,349.237,0.0
52138.0,STARLINK-3723,PAYLOAD,2022-04-17 12:00:00,15.73184321,0.0001307,53.2172,359.027,139.5078,268.3453,0.00060759,0.00085465,0.0,0 STARLINK-3723,1 52138U 22029BC  22107.50001157  .00085465  00000-0  60759-3 0  9993,2 52138  53.2172 359.0270 0001307 139.5078 268.3453 15.73184321  5866,6727.94,91.534,350.684,348.926,0.0
52138.0,STARLINK-3723,PAYLOAD,2022-04-17 14:00:01,15.7319005,0.0001324,53.2168,358.6142,140.0181,20.0685,0.00070703,0.0009975,0.0,0 STARLINK-3723,1 52138U 22029BC  22107.58334491  .00099750  00000-0  70703-3 0  9993,2 52138  53.2168 358.6142 0001324 140.0181  20.0685 15.73190050  3702,6727.924,91.534,350.67900000000014,348.898,0.0
52138.0,STARLINK-3723,PAYLOAD,2022-04-17 22:00:00,15.7327176,0.0001264,53.2167,356.9665,132.0246,117.0133,-5.4261e-05,-8.251e-05,0.0,0 STARLINK-3723,1 52138U 22029BC  22107.91667824 -.00008251  00000-0 -54261-4 0  9999,2 52138  53.2167 356.9665 0001264 132.0246 117.0133 15.73271760  3701,6727.691,91.529,350.406,348.705,0.0
52138.0,STARLINK-3723,PAYLOAD,2022-04-18 04:00:00,15.73270116,0.0001258,53.2161,355.7299,125.5173,100.2819,-0.00022671,-0.0003241,0.0,0 STARLINK-3723,1 52138U 22029BC  22108.16667824 -.00032410  00000-0 -22671-3 0  9990,2 52138  53.2161 355.7299 0001258 125.5173 100.2819 15.73270116  5974,6727.695,91.529,350.407,348.714,0.0
52138.0,STARLINK-3723,PAYLOAD,2022-04-18 14:00:01,15.73211267,0.0001698,53.216,353.6654,129.3436,297.706,5.5175e-05,7.133e-05,0.0,0 STARLINK-3723,1 52138U 22029BC  22108.58334491  .00007133  00000-0  55175-4 0  9995,2 52138  53.2160 353.6654 0001698 129.3436 297.7060 15.73211267  3708,6727.863,91.533,350.87,348.586,0.0
52138.0,STARLINK-3723,PAYLOAD,2022-04-18 22:00:00,15.7318598,0.0001684,53.2162,352.0175,122.1261,33.861999999999995,0.00025088,0.00034714,0.0,0 STARLINK-3723,1 52138U 22029BC  22108.91667824  .00034714  00000-0  25088-3 0  9995,2 52138  53.2162 352.0175 0001684 122.1261  33.8620 15.73185980  3694,6727.935,91.534,350.93300000000005,348.667,0.0
52138.0,STARLINK-3723,PAYLOAD,2022-04-19 12:00:00,15.73176831,0.0001545,53.2162,349.1292,131.4637,90.1795,0.000408,0.00056973,0.0,0 STARLINK-3723,1 52138U 22029BC  22109.50001157  .00056973  00000-0  40800-3 0  9992,2 52138  53.2162 349.1292 0001545 131.4637  90.1795 15.73176831  6188,6727.9609999999975,91.535,350.866,348.787,0.0
52138.0,STARLINK-3723,PAYLOAD,2022-04-19 14:00:01,15.73197927,0.0001581,53.2161,348.7166,131.5238,202.3449,0.00011965,0.00016203,0.0,0 STARLINK-3723,1 52138U 22029BC  22109.58334491  .00016203  00000-0  11965-3 0  9992,2 52138  53.2161 348.7166 0001581 131.5238 202.3449 15.73197927  3707,6727.901,91.533,350.83,348.702,0.0
52138.0,STARLINK-3723,PAYLOAD,2022-04-19 20:00:01,15.73204102,0.0001605,53.216,347.4808,125.8882,184.6844,-0.00016053,-0.00023092,0.0,0 STARLINK-3723,1 52138U 22029BC  22109.83334491 -.00023092  00000-0 -16053-3 0  9999,2 52138  53.2160 347.4808 0001605 125.8882 184.6844 15.73204102  6239,6727.8830000000025,91.533,350.82800000000015,348.6690000000001,0.0
52138.0,STARLINK-3723,PAYLOAD,2022-04-20 04:00:00,15.73232069,0.0001375999999999,53.2152,345.8321,124.0925,275.4162,-0.0002575,-0.00036651,0.0,0 STARLINK-3723,1 52138U 22029BC  22110.16667824 -.00036651  00000-0 -25750-3 0  9995,2 52138  53.2152 345.8321 0001376 124.0925 275.4162 15.73232069  6286,6727.804,91.531,350.594,348.74300000000005,0.0
52138.0,STARLINK-3723,PAYLOAD,2022-04-20 14:00:01,15.73185222,0.0001554,53.2155,343.7677,137.5762,103.1142,-4.142600000000001e-05,-6.426e-05,0.0,0 STARLINK-3723,1 52138U 22029BC  22110.58334491 -.00006426  00000-0 -41426-4 0  9998,2 52138  53.2155 343.7677 0001554 137.5762 103.1142 15.73185222  3703,6727.937,91.534,350.848,348.75699999999995,0.0
52138.0,STARLINK-3723,PAYLOAD,2022-04-20 22:00:00,15.7316992,0.0001494,53.2156,342.1201,128.101,201.4991,0.00026278,0.00036372,0.0,0 STARLINK-3723,1 52138U 22029BC  22110.91667824  .00036372  00000-0  26278-3 0  9992,2 52138  53.2156 342.1201 0001494 128.1010 201.4991 15.73169920  3751,6727.981,91.535,350.851,348.841,0.0
52138.0,STARLINK-3723,PAYLOAD,2022-04-21 04:00:00,15.73002114,0.0001508,53.2164,340.8779,129.6536,176.6948,0.00087599,0.00123087,0.0,0 STARLINK-3723,1 52138U 22029BC  22111.16667824  .00123087  00000-0  87599-3 0  9993,2 52138  53.2164 340.8779 0001508 129.6536 176.6948 15.73002114  6445,6728.459,91.545,351.339,349.31,0.0
52138.0,STARLINK-3723,PAYLOAD,2022-04-21 14:00:01,15.73194548,0.0001603,53.2159,338.8191,133.4509,14.0141,-0.00019831,-0.00028352,0.0,0 STARLINK-3723,1 52138U 22029BC  22111.58334491 -.00028352  00000-0 -19831-3 0  9995,2 52138  53.2159 338.8191 0001603 133.4509  14.0141 15.73194548  3702,6727.911,91.533,350.85400000000016,348.69699999999995,0.0
52138.0,STARLINK-3723,PAYLOAD,2022-04-21 22:00:00,15.73183728,0.0001289,53.2156,337.1716,130.3579,106.0683,0.00042841,0.00059892,0.0,0 STARLINK-3723,1 52138U 22029BC  22111.91667824  .00059892  00000-0  42841-3 0  9999,2 52138  53.2156 337.1716 0001289 130.3579 106.0683 15.73183728  3719,6727.941999999999,91.534,350.6740000000001,348.939,0.0
52138.0,STARLINK-3723,PAYLOAD,2022-04-22 04:00:01,15.7323562,0.0001245,53.215,335.9344,132.3869,80.7938,0.00023155,0.0003205,0.0,0 STARLINK-3723,1 52138U 22029BC  22112.16668981  .00032050  00000-0  23155-3 0  9996,2 52138  53.2150 335.9344 0001245 132.3869  80.7938 15.73235620  6603,6727.794,91.531,350.496,348.821,0.0
52138.0,STARLINK-3723,PAYLOAD,2022-04-22 14:00:01,15.73231657,0.0001607,53.2154,333.8703,134.8808,279.4533,-0.00032908,-0.00046613,0.0,0 STARLINK-3723,1 52138U 22029BC  22112.58334491 -.00046613  00000-0 -32908-3 0  9996,2 52138  53.2154 333.8703 0001607 134.8808 279.4533 15.73231657  6665,6727.805,91.531,350.751,348.589,0.0
52138.0,STARLINK-3723,PAYLOAD,2022-04-23 12:00:00,15.73192819,0.0001448,53.2156,329.3343,137.809,71.0292,0.00012946,0.00017581,0.0,0 STARLINK-3723,1 52138U 22029BC  22113.50001157  .00017581  00000-0  12946-3 0  9999,2 52138  53.2156 329.3343 0001448 137.8090  71.0292 15.73192819  6817,6727.916,91.534,350.755,348.806,0.0
52138.0,STARLINK-3723,PAYLOAD,2022-04-23 14:00:01,15.73222507,0.0001474,53.2158,328.922,136.24,184.8205,-0.00030014,-0.00042571,0.0,0 STARLINK-3723,1 52138U 22029BC  22113.58334491 -.00042571  00000-0 -30014-3 0  9992,2 52138  53.2158 328.9220 0001474 136.2400 184.8205 15.73222507  3693,6727.831,91.532,350.68800000000016,348.704,0.0
52138.0,STARLINK-3723,PAYLOAD,2022-04-23 20:00:01,15.73194333,0.0001366,53.2154,327.6866,129.0837,168.688,-0.0003003,-0.00042542,0.0,0 STARLINK-3723,1 52138U 22029BC  22113.83334491 -.00042542  00000-0 -30030-3 0  9996,2 52138  53.2154 327.6866 0001366 129.0837 168.6880 15.73194333  6861,6727.911,91.534,350.695,348.857,0.0
52138.0,STARLINK-3723,PAYLOAD,2022-04-24 04:00:00,15.73180965,0.000118,53.2147,326.0371,133.1035,253.6268,0.00025593,0.0003542,0.0,0 STARLINK-3723,1 52138U 22029BC  22114.16667824  .00035420  00000-0  25593-3 0  9995,2 52138  53.2147 326.0371 0001180 133.1035 253.6268 15.73180965  6914,6727.949000000001,91.534,350.608,349.021,0.0
52138.0,STARLINK-3723,PAYLOAD,2022-04-24 14:00:01,15.73255509,0.0001444,53.2151,323.9735,139.7571,88.1411,-0.00025186,-0.00035901,0.0,0 STARLINK-3723,1 52138U 22029BC  22114.58334491 -.00035901  00000-0 -25186-3 0  9996,2 52138  53.2151 323.9735 0001444 139.7571  88.1411 15.73255509  3701,6727.736999999999,91.53,350.5730000000001,348.63,0.0
52138.0,STARLINK-3723,PAYLOAD,2022-04-24 20:00:01,15.7321699,0.0001388,53.2151,322.7382,127.8593,76.7527,-0.00043642,-0.00061468,0.0,0 STARLINK-3723,1 52138U 22029BC  22114.83334491 -.00061468  00000-0 -43642-3 0  9998,2 52138  53.2151 322.7382 0001388 127.8593  76.7527 15.73216990  7026,6727.847,91.532,350.646,348.778,0.0
52138.0,STARLINK-3723,PAYLOAD,2022-04-25 04:00:00,15.73198099,0.0001295,53.215,321.0885,127.8781,165.6496,-0.00014683,-0.00021173,0.0,0 STARLINK-3723,1 52138U 22029BC  22115.16667824 -.00021173  00000-0 -14683-3 0  9996,2 52138  53.2150 321.0885 0001295 127.8781 165.6496 15.73198099  7078,6727.901,91.533,350.63699999999994,348.894,0.0
52138.0,STARLINK-3723,PAYLOAD,2022-04-25 14:00:01,15.73151474,0.0001401,53.2154,319.0252,134.9197,359.7362,0.00046078,0.0006441,0.0,0 STARLINK-3723,1 52138U 22029BC  22115.58334491  .00064410  00000-0  46078-3 0  9995,2 52138  53.2154 319.0252 0001401 134.9197 359.7362 15.73151474  3717,6728.034000000002,91.536,350.841,348.956,0.0
